{
  "type": "FeatureCollection",
  "features": [
    {
      "type": "Feature",
      "properties": {
        "norad_id": 31608,
        "name": "FENGYUN 1C DEB",
        "group": "fengyun-1c-debris",
        "lat": 54.82741291961882,
        "lon": -50.678751491420115,
        "alt_km": 661.940797858415,
        "timestamp": "2025-12-24T11:33:00.300237+00:00",
        "meta_object_name": "FENGYUN 1C DEB",
        "meta_object_id": "1999-025BZN",
        "meta_epoch": "2025-12-17T14:09:29.850912",
        "meta_mean_motion": 14.85908283,
        "meta_eccentricity": 0.01457059,
        "meta_inclination": 98.3797,
        "meta_ra_of_asc_node": 109.9897,
        "meta_arg_of_pericenter": 22.0076,
        "meta_mean_anomaly": 338.7309,
        "meta_ephemeris_type": 0,
        "meta_classification_type": "U",
        "meta_norad_cat_id": 31608,
        "meta_element_set_no": 999,
        "meta_rev_at_epoch": 98705,
        "meta_bstar": 0.00045964647,
        "meta_mean_motion_dot": 4.79e-05,
        "meta_mean_motion_ddot": 0,
        "tle_line1": "1 31608U 99025BZN 25351.58992883  .00004790  00000+0  45965-3 0  9992",
        "tle_line2": "2 31608  98.3797 109.9897 0145705  22.0076 338.7309 14.85908283987055"
      },
      "geometry": {
        "type": "Point",
        "coordinates": [
          -50.678751491420115,
          54.82741291961882
        ]
      }
    },
    {
      "type": "Feature",
      "properties": {
        "norad_id": 31609,
        "name": "FENGYUN 1C DEB",
        "group": "fengyun-1c-debris",
        "lat": -54.906317296539406,
        "lon": -165.9535900798375,
        "alt_km": 803.1115404202719,
        "timestamp": "2025-12-24T11:33:00.300247+00:00",
        "meta_object_name": "FENGYUN 1C DEB",
        "meta_object_id": "1999-025BZP",
        "meta_epoch": "2025-12-22T21:42:13.279104",
        "meta_mean_motion": 14.15844126,
        "meta_eccentricity": 0.0094714,
        "meta_inclination": 99.2139,
        "meta_ra_of_asc_node": 25.7728,
        "meta_arg_of_pericenter": 291.5289,
        "meta_mean_anomaly": 191.9396,
        "meta_ephemeris_type": 0,
        "meta_classification_type": "U",
        "meta_norad_cat_id": 31609,
        "meta_element_set_no": 999,
        "meta_rev_at_epoch": 66228,
        "meta_bstar": 0.002391,
        "meta_mean_motion_dot": 4.866e-05,
        "meta_mean_motion_ddot": 0,
        "tle_line1": "1 31609U 99025BZP 25356.90432036  .00004866  00000+0  23910-2 0  9992",
        "tle_line2": "2 31609  99.2139  25.7728 0094714 291.5289 191.9396 14.15844126662284"
      },
      "geometry": {
        "type": "Point",
        "coordinates": [
          -165.9535900798375,
          -54.906317296539406
        ]
      }
    },
    {
      "type": "Feature",
      "properties": {
        "norad_id": 31612,
        "name": "FENGYUN 1C DEB",
        "group": "fengyun-1c-debris",
        "lat": 0.08909801771584698,
        "lon": 99.72795765007425,
        "alt_km": 349.6172221246279,
        "timestamp": "2025-12-24T11:33:00.300257+00:00",
        "meta_object_name": "FENGYUN 1C DEB",
        "meta_object_id": "1999-025BZS",
        "meta_epoch": "2025-12-24T00:07:49.437120",
        "meta_mean_motion": 15.76479438,
        "meta_eccentricity": 0.002928,
        "meta_inclination": 100.3349,
        "meta_ra_of_asc_node": 279.0037,
        "meta_arg_of_pericenter": 70.4484,
        "meta_mean_anomaly": 289.9929,
        "meta_ephemeris_type": 0,
        "meta_classification_type": "U",
        "meta_norad_cat_id": 31612,
        "meta_element_set_no": 999,
        "meta_rev_at_epoch": 182,
        "meta_bstar": 0.0019135,
        "meta_mean_motion_dot": 0.00321816,
        "meta_mean_motion_ddot": 0,
        "tle_line1": "1 31612U 99025BZS 25358.00543330  .00321816  00000+0  19135-2 0  9990",
        "tle_line2": "2 31612 100.3349 279.0037 0029280  70.4484 289.9929 15.76479438  1824"
      },
      "geometry": {
        "type": "Point",
        "coordinates": [
          99.72795765007425,
          0.08909801771584698
        ]
      }
    },
    {
      "type": "Feature",
      "properties": {
        "norad_id": 31613,
        "name": "FENGYUN 1C DEB",
        "group": "fengyun-1c-debris",
        "lat": -1.2380686729967971,
        "lon": 3.796312588565374,
        "alt_km": 1088.805403378914,
        "timestamp": "2025-12-24T11:33:00.300267+00:00",
        "meta_object_name": "FENGYUN 1C DEB",
        "meta_object_id": "1999-025BZT",
        "meta_epoch": "2025-12-23T06:31:23.498400",
        "meta_mean_motion": 13.63471347,
        "meta_eccentricity": 0.03426742,
        "meta_inclination": 98.424,
        "meta_ra_of_asc_node": 182.93,
        "meta_arg_of_pericenter": 78.1321,
        "meta_mean_anomaly": 285.8034,
        "meta_ephemeris_type": 0,
        "meta_classification_type": "U",
        "meta_norad_cat_id": 31613,
        "meta_element_set_no": 999,
        "meta_rev_at_epoch": 91905,
        "meta_bstar": 0.0011595288,
        "meta_mean_motion_dot": 1.328e-05,
        "meta_mean_motion_ddot": 0,
        "tle_line1": "1 31613U 99025BZT 25357.27179975  .00001328  00000+0  11595-2 0  9994",
        "tle_line2": "2 31613  98.4240 182.9300 0342674  78.1321 285.8034 13.63471347919057"
      },
      "geometry": {
        "type": "Point",
        "coordinates": [
          3.796312588565374,
          -1.2380686729967971
        ]
      }
    },
    {
      "type": "Feature",
      "properties": {
        "norad_id": 31614,
        "name": "FENGYUN 1C DEB",
        "group": "fengyun-1c-debris",
        "lat": 21.417572797268715,
        "lon": 89.57219594661366,
        "alt_km": 581.2401758003007,
        "timestamp": "2025-12-24T11:33:00.300277+00:00",
        "meta_object_name": "FENGYUN 1C DEB",
        "meta_object_id": "1999-025BZU",
        "meta_epoch": "2025-12-23T17:21:05.772672",
        "meta_mean_motion": 14.99252513,
        "meta_eccentricity": 0.00181827,
        "meta_inclination": 98.9726,
        "meta_ra_of_asc_node": 265.1466,
        "meta_arg_of_pericenter": 336.1404,
        "meta_mean_anomaly": 51.7298,
        "meta_ephemeris_type": 0,
        "meta_classification_type": "U",
        "meta_norad_cat_id": 31614,
        "meta_element_set_no": 999,
        "meta_rev_at_epoch": 96594,
        "meta_bstar": 0.0072376866,
        "meta_mean_motion_dot": 0.00089587,
        "meta_mean_motion_ddot": 0,
        "tle_line1": "1 31614U 99025BZU 25357.72298348  .00089587  00000+0  72377-2 0  9999",
        "tle_line2": "2 31614  98.9726 265.1466 0018182 336.1404  51.7298 14.99252513965945"
      },
      "geometry": {
        "type": "Point",
        "coordinates": [
          89.57219594661366,
          21.417572797268715
        ]
      }
    },
    {
      "type": "Feature",
      "properties": {
        "norad_id": 31615,
        "name": "FENGYUN 1C DEB",
        "group": "fengyun-1c-debris",
        "lat": -27.492699170911184,
        "lon": -134.1992275520908,
        "alt_km": 745.3299480393734,
        "timestamp": "2025-12-24T11:33:00.300287+00:00",
        "meta_object_name": "FENGYUN 1C DEB",
        "meta_object_id": "1999-025BZV",
        "meta_epoch": "2025-12-21T08:57:52.598016",
        "meta_mean_motion": 14.35490387,
        "meta_eccentricity": 0.01666424,
        "meta_inclination": 99.1375,
        "meta_ra_of_asc_node": 47.3142,
        "meta_arg_of_pericenter": 291.3447,
        "meta_mean_anomaly": 67.0022,
        "meta_ephemeris_type": 0,
        "meta_classification_type": "U",
        "meta_norad_cat_id": 31615,
        "meta_element_set_no": 999,
        "meta_rev_at_epoch": 65402,
        "meta_bstar": 0.002664341,
        "meta_mean_motion_dot": 8.927e-05,
        "meta_mean_motion_ddot": 0,
        "tle_line1": "1 31615U 99025BZV 25355.37352544  .00008927  00000+0  26643-2 0  9992",
        "tle_line2": "2 31615  99.1375  47.3142 0166642 291.3447  67.0022 14.35490387654026"
      },
      "geometry": {
        "type": "Point",
        "coordinates": [
          -134.1992275520908,
          -27.492699170911184
        ]
      }
    },
    {
      "type": "Feature",
      "properties": {
        "norad_id": 31618,
        "name": "FENGYUN 1C DEB",
        "group": "fengyun-1c-debris",
        "lat": 27.337343358745454,
        "lon": 137.28694317918266,
        "alt_km": 828.8276447791613,
        "timestamp": "2025-12-24T11:33:00.300297+00:00",
        "meta_object_name": "FENGYUN 1C DEB",
        "meta_object_id": "1999-025BZY",
        "meta_epoch": "2025-12-23T05:00:13.341600",
        "meta_mean_motion": 14.21035882,
        "meta_eccentricity": 0.0156931,
        "meta_inclination": 99.4438,
        "meta_ra_of_asc_node": 140.8629,
        "meta_arg_of_pericenter": 296.392,
        "meta_mean_anomaly": 62.1219,
        "meta_ephemeris_type": 0,
        "meta_classification_type": "U",
        "meta_norad_cat_id": 31618,
        "meta_element_set_no": 999,
        "meta_rev_at_epoch": 70413,
        "meta_bstar": 0.00031508967,
        "meta_mean_motion_dot": 7.22e-06,
        "meta_mean_motion_ddot": 0,
        "tle_line1": "1 31618U 99025BZY 25357.20848775  .00000722  00000+0  31509-3 0  9998",
        "tle_line2": "2 31618  99.4438 140.8629 0156931 296.3920  62.1219 14.21035882704134"
      },
      "geometry": {
        "type": "Point",
        "coordinates": [
          137.28694317918266,
          27.337343358745454
        ]
      }
    }
  ]
}